{"type": "FeatureCollection", "features": [ {"type": "Feature", "properties": {"norad_id": 32363, "name": "FENGYUN 1C DEB", "group": "fengyun-1c-debris", "lat": 70.14623978870517, "lon": -71.67883166493516, "alt_km": 383.3356502687084, "timestamp": "2025-12-19T06:59:44.194763+00:00", "meta": {"OBJECT_NAME": "FENGYUN 1C DEB", "OBJECT_ID": "1999-025CZG", "EPOCH": "2025-12-17T08:09:57.409920", "MEAN_MOTION": 15.48534366, "ECCENTRICITY": 0.00638192, "INCLINATION": 98.3303, "RA_OF_ASC_NODE": 310.0138, "ARG_OF_PERICENTER": 125.2276, "MEAN_ANOMALY": 235.4969, "EPHEMERIS_TYPE": 0, "CLASSIFICATION_TYPE": "U", "NORAD_CAT_ID": 32363, "ELEMENT_SET_NO": 999, "REV_AT_EPOCH": 96879, "BSTAR": 0.0013930297, "MEAN_MOTION_DOT": 0.00081044, "MEAN_MOTION_DDOT": 0}, "tle": {"line1": "1 32363U 99025CZG 25351.34024780  .00081044  00000+0  13930-2 0  9990", "line2": "2 32363  98.3303 310.0138 0063819 125.2276 235.4969 15.48534366968795"}}, "geometry": {"type": "Point", "coordinates": [-71.67883166493516, 70.14623978870517]}}, {"type": "Feature", "properties": {"norad_id": 32364, "name": "FENGYUN 1C DEB", "group": "fengyun-1c-debris", "lat": 24.746141753950216, "lon": -172.0815436923212, "alt_km": 917.3533801338363, "timestamp": "2025-12-19T06:59:44.194773+00:00", "meta": {"OBJECT_NAME": "FENGYUN 1C DEB", "OBJECT_ID": "1999-025CZH", "EPOCH": "2025-11-29T08:05:37.624992", "MEAN_MOTION": 14.14317962, "ECCENTRICITY": 0.01349396, "INCLINATION": 98.2918, "RA_OF_ASC_NODE": 173.2369, "ARG_OF_PERICENTER": 222.8285, "MEAN_ANOMALY": 136.2316, "EPHEMERIS_TYPE": 0, "CLASSIFICATION_TYPE": "U", "NORAD_CAT_ID": 32364, "ELEMENT_SET_NO": 999, "REV_AT_EPOCH": 63519, "BSTAR": 0.0022712328, "MEAN_MOTION_DOT": 4.699e-05, "MEAN_MOTION_DDOT": 0}, "tle": {"line1": "1 32364U 99025CZH 25333.33724103  .00004699  00000+0  22712-2 0  9995", "line2": "2 32364  98.2918 173.2369 0134939 222.8285 136.2316 14.14317962635190"}}, "geometry": {"type": "Point", "coordinates": [-172.0815436923212, 24.746141753950216]}}, {"type": "Feature", "properties": {"norad_id": 32366, "name": "FENGYUN 1C DEB", "group": "fengyun-1c-debris", "lat": 65.73383260850761, "lon": 98.79576952313137, "alt_km": 937.6520272044445, "timestamp": "2025-12-19T06:59:44.194784+00:00", "meta": {"OBJECT_NAME": "FENGYUN 1C DEB", "OBJECT_ID": "1999-025CZK", "EPOCH": "2025-12-17T13:54:40.935744", "MEAN_MOTION": 14.13865958, "ECCENTRICITY": 0.0135504, "INCLINATION": 96.7755, "RA_OF_ASC_NODE": 112.7867, "ARG_OF_PERICENTER": 252.3164, "MEAN_ANOMALY": 106.3182, "EPHEMERIS_TYPE": 0, "CLASSIFICATION_TYPE": "U", "NORAD_CAT_ID": 32366, "ELEMENT_SET_NO": 999, "REV_AT_EPOCH": 93272, "BSTAR": 0.0013067056, "MEAN_MOTION_DOT": 2.675e-05, "MEAN_MOTION_DDOT": 0}, "tle": {"line1": "1 32366U 99025CZK 25351.57964046  .00002675  00000+0  13067-2 0  9990", "line2": "2 32366  96.7755 112.7867 0135504 252.3164 106.3182 14.13865958932728"}}, "geometry": {"type": "Point", "coordinates": [98.79576952313137, 65.73383260850761]}}, {"type": "Feature", "properties": {"norad_id": 32372, "name": "FENGYUN 1C DEB", "group": "fengyun-1c-debris", "lat": 46.48065362039488, "lon": 60.33884924986704, "alt_km": 1224.6793867312808, "timestamp": "2025-12-19T06:59:44.194794+00:00", "meta": {"OBJECT_NAME": "FENGYUN 1C DEB", "OBJECT_ID": "1999-025CZR", "EPOCH": "2025-12-11T11:21:44.110080", "MEAN_MOTION": 13.35367723, "ECCENTRICITY": 0.04586798, "INCLINATION": 97.3163, "RA_OF_ASC_NODE": 226.9338, "ARG_OF_PERICENTER": 43.4714, "MEAN_ANOMALY": 320.164, "EPHEMERIS_TYPE": 0, "CLASSIFICATION_TYPE": "U", "NORAD_CAT_ID": 32372, "ELEMENT_SET_NO": 999, "REV_AT_EPOCH": 60123, "BSTAR": 0.003543376, "MEAN_MOTION_DOT": 3.249e-05, "MEAN_MOTION_DDOT": 0}, "tle": {"line1": "1 32372U 99025CZR 25345.47342720  .00003249  00000+0  35434-2 0  9998", "line2": "2 32372  97.3163 226.9338 0458679  43.4714 320.1640 13.35367723601231"}}, "geometry": {"type": "Point", "coordinates": [60.33884924986704, 46.48065362039488]}}, {"type": "Feature", "properties": {"norad_id": 32409, "name": "FENGYUN 1C DEB", "group": "fengyun-1c-debris", "lat": -66.52837017369036, "lon": -44.52116127039304, "alt_km": 659.1696434159667, "timestamp": "2025-12-19T06:59:44.194804+00:00", "meta": {"OBJECT_NAME": "FENGYUN 1C DEB", "OBJECT_ID": "1999-025CZV", "EPOCH": "2025-12-07T05:07:54.004800", "MEAN_MOTION": 14.7602828, "ECCENTRICITY": 0.00392582, "INCLINATION": 99.5677, "RA_OF_ASC_NODE": 144.053, "ARG_OF_PERICENTER": 169.8692, "MEAN_ANOMALY": 6.8268, "EPHEMERIS_TYPE": 0, "CLASSIFICATION_TYPE": "U", "NORAD_CAT_ID": 32409, "ELEMENT_SET_NO": 999, "REV_AT_EPOCH": 58757, "BSTAR": 0.00306852, "MEAN_MOTION_DOT": 0.00021404, "MEAN_MOTION_DDOT": 0}, "tle": {"line1": "1 32409U 99025CZV 25341.21381950  .00021404  00000+0  30685-2 0  9991", "line2": "2 32409  99.5677 144.0530 0039258 169.8692   6.8268 14.76028280587578"}}, "geometry": {"type": "Point", "coordinates": [-44.52116127039304, -66.52837017369036]}}, {"type": "Feature", "properties": {"norad_id": 32411, "name": "FENGYUN 1C DEB", "group": "fengyun-1c-debris", "lat": 76.44910919762461, "lon": -127.13259818840957, "alt_km": 838.4673325468293, "timestamp": "2025-12-19T06:59:44.194814+00:00", "meta": {"OBJECT_NAME": "FENGYUN 1C DEB", "OBJECT_ID": "1999-025CZX", "EPOCH": "2025-12-16T00:16:33.809088", "MEAN_MOTION": 14.09815974, "ECCENTRICITY": 0.01241346, "INCLINATION": 98.43, "RA_OF_ASC_NODE": 267.7666, "ARG_OF_PERICENTER": 7.1791, "MEAN_ANOMALY": 353.1122, "EPHEMERIS_TYPE": 0, "CLASSIFICATION_TYPE": "U", "NORAD_CAT_ID": 32411, "ELEMENT_SET_NO": 999, "REV_AT_EPOCH": 65860, "BSTAR": 0.00048847863, "MEAN_MOTION_DOT": 8.82e-06, "MEAN_MOTION_DDOT": 0}, "tle": {"line1": "1 32411U 99025CZX 25350.01150242  .00000882  00000+0  48848-3 0  9998", "line2": "2 32411  98.4300 267.7666 0124134   7.1791 353.1122 14.09815974658607"}}, "geometry": {"type": "Point", "coordinates": [-127.13259818840957, 76.44910919762461]}}, {"type": "Feature", "properties": {"norad_id": 32414, "name": "FENGYUN 1C DEB", "group": "fengyun-1c-debris", "lat": 20.243714999147166, "lon": 60.64246796522017, "alt_km": 806.373282493656, "timestamp": "2025-12-19T06:59:44.194824+00:00", "meta": {"OBJECT_NAME": "FENGYUN 1C DEB", "OBJECT_ID": "1999-025DAA", "EPOCH": "2025-12-18T10:35:05.112960", "MEAN_MOTION": 14.18440722, "ECCENTRICITY": 0.00448942, "INCLINATION": 98.8581, "RA_OF_ASC_NODE": 63.0906, "ARG_OF_PERICENTER": 341.2482, "MEAN_ANOMALY": 18.7038, "EPHEMERIS_TYPE": 0, "CLASSIFICATION_TYPE": "U", "NORAD_CAT_ID": 32414, "ELEMENT_SET_NO": 999, "REV_AT_EPOCH": 93813, "BSTAR": 0.0011211684, "MEAN_MOTION_DOT": 2.294e-05, "MEAN_MOTION_DDOT": 0}, "tle": {"line1": "1 32414U 99025DAA 25352.44103140  .00002294  00000+0  11212-2 0  9998", "line2": "2 32414  98.8581  63.0906 0044894 341.2482  18.7038 14.18440722938136"}}, "geometry": {"type": "Point", "coordinates": [60.64246796522017, 20.243714999147166]}}, {"type": "Feature", "properties": {"norad_id": 32419, "name": "FENGYUN 1C DEB", "group": "fengyun-1c-debris", "lat": -23.76003771056661, "lon": -68.66324181817089, "alt_km": 692.6029794345495, "timestamp": "2025-12-19T06:59:44.194835+00:00", "meta": {"OBJECT_NAME": "FENGYUN 1C DEB", "OBJECT_ID": "1999-025DAF", "EPOCH": "2025-12-11T15:09:56.013984", "MEAN_MOTION": 14.09908253, "ECCENTRICITY": 0.02839501, "INCLINATION": 97.9459, "RA_OF_ASC_NODE": 281.0334, "ARG_OF_PERICENTER": 32.1797, "MEAN_ANOMALY": 329.6358, "EPHEMERIS_TYPE": 0, "CLASSIFICATION_TYPE": "U", "NORAD_CAT_ID": 32419, "ELEMENT_SET_NO": 999, "REV_AT_EPOCH": 63555, "BSTAR": 0.0013854285, "MEAN_MOTION_DOT": 3.513e-05, "MEAN_MOTION_DDOT": 0}, "tle": {"line1": "1 32419U 99025DAF 25345.63189831  .00003513  00000+0  13854-2 0  9996", "line2": "2 32419  97.9459 281.0334 0283950  32.1797 329.6358 14.09908253635552"}}, "geometry": {"type": "Point", "coordinates": [-68.66324181817089, -23.76003771056661]}}, {"type": "Feature", "properties": {"norad_id": 32422, "name": "FENGYUN 1C DEB", "group": "fengyun-1c-debris", "lat": -35.476917636219014, "lon": -61.77767899678036, "alt_km": 787.8991626224242, "timestamp": "2025-12-19T06:59:44.194844+00:00", "meta": {"OBJECT_NAME": "FENGYUN 1C DEB", "OBJECT_ID": "1999-025DAJ", "EPOCH": "2025-12-18T14:28:39.254304", "MEAN_MOTION": 13.98014994, "ECCENTRICITY": 0.02982939, "INCLINATION": 97.8414, "RA_OF_ASC_NODE": 123.2691, "ARG_OF_PERICENTER": 275.9311, "MEAN_ANOMALY": 80.7936, "EPHEMERIS_TYPE": 0, "CLASSIFICATION_TYPE": "U", "NORAD_CAT_ID": 32422, "ELEMENT_SET_NO": 999, "REV_AT_EPOCH": 63215, "BSTAR": 0.00020595213, "MEAN_MOTION_DOT": 3.88e-06, "MEAN_MOTION_DDOT": 0}, "tle": {"line1": "1 32422U 99025DAJ 25352.60323211  .00000388  00000+0  20595-3 0  9995", "line2": "2 32422  97.8414 123.2691 0298293 275.9311  80.7936 13.98014994632151"}}, "geometry": {"type": "Point", "coordinates": [-61.77767899678036, -35.476917636219014]}}, {"type": "Feature", "properties": {"norad_id": 32425, "name": "FENGYUN 1C DEB", "group": "fengyun-1c-debris", "lat": -57.46604070474713, "lon": -50.593727372416524, "alt_km": 716.9245881452043, "timestamp": "2025-12-19T06:59:44.194855+00:00", "meta": {"OBJECT_NAME": "FENGYUN 1C DEB", "OBJECT_ID": "1999-025DAM", "EPOCH": "2025-12-12T16:13:12.115488", "MEAN_MOTION": 14.16741504, "ECCENTRICITY": 0.02316015, "INCLINATION": 96.7012, "RA_OF_ASC_NODE": 135.0318, "ARG_OF_PERICENTER": 299.6477, "MEAN_ANOMALY": 58.1818, "EPHEMERIS_TYPE": 0, "CLASSIFICATION_TYPE": "U", "NORAD_CAT_ID": 32425, "ELEMENT_SET_NO": 999, "REV_AT_EPOCH": 69534, "BSTAR": 0.00075748036, "MEAN_MOTION_DOT": 1.938e-05, "MEAN_MOTION_DDOT": 0}, "tle": {"line1": "1 32425U 99025DAM 25346.67583467  .00001938  00000+0  75748-3 0  9991", "line2": "2 32425  96.7012 135.0318 0231601 299.6477  58.1818 14.16741504695342"}}, "geometry": {"type": "Point", "coordinates": [-50.593727372416524, -57.46604070474713]}}]}